O3B FM5                 
1 39188U 13031A   22309.59993943 -.00000023  00000+0  00000+0 0  9998
2 39188   0.0657  14.0134 0002731 215.9708 129.9968  5.00115327171026
O3B FM4                 
1 39189U 13031B   22309.25613439 -.00000023  00000+0  00000+0 0  9991
2 39189   0.0466 352.7732 0002685 236.7883 130.4199  5.00115858171116
O3B FM2                 
1 39190U 13031C   22309.74736642 -.00000023  00000+0  00000+0 0  9999
2 39190   0.0449 346.5985 0002690 241.7370 131.6464  5.00115085171102
O3B PFM                 
1 39191U 13031D   22309.57374960 -.00000023  00000+0  00000+0 0  9992
2 39191   0.0578   9.9430 0002709 215.4372 134.6026  5.00115714171108
O3B FM3                 
1 40079U 14038A   22309.62855053 -.00000023  00000+0  00000+0 0  9990
2 40079   0.0515 359.8708 0004695 203.7213 156.3913  5.00115321147036
O3B FM7                 
1 40080U 14038B   22309.37472798 -.00000023  00000+0  00000+0 0  9995
2 40080   0.0524 354.9921 0002295 272.9565  92.0300  5.00115505151847
O3B FM6                 
1 40081U 14038C   22309.60100587 -.00000023  00000+0  00000+0 0  9996
2 40081   0.0505 359.6414 0002771 225.9225 134.4183  5.00115300151816
O3B FM8                 
1 40082U 14038D   22310.25457147 -.00000023  00000+0  00000+0 0  9997
2 40082   0.0477 357.5972 0002663 226.0695 136.3173  5.00115699152142
O3B FM10                
1 40348U 14083A   22309.68100783 -.00000023  00000+0  00000+0 0  9998
2 40348   0.0527   9.5364 0002683 216.1758 134.2707  5.00115126143880
O3B FM11                
1 40349U 14083B   22309.49454949 -.00000023  00000+0  00000+0 0  9994
2 40349   0.0567   6.8212 0002781 233.2020 119.9540  5.00115366143890
O3B FM12                
1 40350U 14083C   22308.12253470 -.00000023  00000+0  00000+0 0  9991
2 40350   0.0558   6.5425 0002851 219.8299 133.6086  5.00115255143830
O3B FM9                 
1 40351U 14083D   22309.74846705 -.00000023  00000+0  00000+0 0  9990
2 40351   0.0578   6.4919 0002673 220.4684 133.0223  5.00116095144064
DIAMOND RED             
1 42783U 17036U   22309.85256211  .00015955  00000+0  54890-3 0  9990
2 42783  97.1845 345.8768 0009935 175.4785 184.6548 15.30099195298540
DIAMOND GREEN           
1 42785U 17036W   22309.85262719  .00017179  00000+0  58967-3 0  9991
2 42785  97.1848 345.9429 0009786 176.7411 183.3896 15.30159875298616
DIAMOND BLUE            
1 42786U 17036X   22310.04809507  .00016976  00000+0  58293-3 0  9993
2 42786  97.1848 346.1239 0009782 176.6608 183.4700 15.30149902298561
LEO VANTAGE 1           
1 43113U 18004C   22309.68906243  .00004623  00000+0  36868-3 0  9997
2 43113  99.2442  44.8279 0399798 126.8335 237.0233 14.54537213244769
O3B FM15                
1 43231U 18024A   22309.61452091 -.00000023  00000+0  00000+0 0  9996
2 43231   0.0501  12.2268 0003022 215.0173 132.7353  5.00116084 85011
O3B FM16                
1 43232U 18024B   22309.66792494 -.00000023  00000+0  00000+0 0  9996
2 43232   0.0480  16.4723 0003004 211.5539 131.9531  5.00115906 84938
O3B FM14                
1 43233U 18024C   22309.50772877 -.00000023  00000+0  00000+0 0  9993
2 43233   0.0468  17.6120 0002894 213.0624 129.3048  5.00115302 84931
O3B FM13                
1 43234U 18024D   22305.96322640 -.00000022  00000+0  00000+0 0  9998
2 43234   0.0599  12.8340 0003801 213.6873 133.4520  5.00115173 84868
O3B FM20                
1 44112U 19020A   22309.53442497 -.00000023  00000+0  00000+0 0  9992
2 44112   0.0521   9.1348 0003261 223.2965 127.5440  5.00115451 65554
O3B FM19                
1 44113U 19020B   22310.36082590 -.00000023  00000+0  00000+0 0  9990
2 44113   0.0746  14.3463 0002047 242.2469 103.3891  5.00115080 65663
O3B FM17                
1 44114U 19020C   22309.24194080 -.00000023  00000+0  00000+0 0  9994
2 44114   0.0328   4.5084 0003143 222.4409 133.0292  5.00115578 65489
O3B FM18                
1 44115U 19020D   22307.98909864 -.00000023  00000+0  00000+0 0  9998
2 44115   0.0525   9.2352 0002930 214.7178 136.0283  5.00115756 65558
SALSAT                  
1 46495U 20068K   22309.73270370  .00005132  00000+0  36287-3 0  9998
2 46495  97.7420 251.2137 0016780 153.9166 206.2910 15.05220205115439
